[{"OBJECT_NAME":"STARLINK-35602","OBJECT_ID":"2025-257Z","EPOCH":"2026-03-09T16:35:59.042976","MEAN_MOTION":15.30189236,"ECCENTRICITY":9.482e-5,"INCLINATION":53.158,"RA_OF_ASC_NODE":217.0219,"ARG_OF_PERICENTER":66.8442,"MEAN_ANOMALY":293.2658,"EPHEMERIS_TYPE":0,"CLASSIFICATION_TYPE":"U","NORAD_CAT_ID":66403,"ELEMENT_SET_NO":999,"REV_AT_EPOCH":1973,"BSTAR":0.0012900137,"MEAN_MOTION_DOT":0.0003803,"MEAN_MOTION_DDOT":0},{"OBJECT_NAME":"GLOBAL-34","OBJECT_ID":"2026-043A","EPOCH":"2026-03-09T11:23:30.999840","MEAN_MOTION":15.31488019,"ECCENTRICITY":0.00068849,"INCLINATION":42.0215,"RA_OF_ASC_NODE":76.7399,"ARG_OF_PERICENTER":289.2632,"MEAN_ANOMALY":70.746,"EPHEMERIS_TYPE":0,"CLASSIFICATION_TYPE":"U","NORAD_CAT_ID":68098,"ELEMENT_SET_NO":999,"REV_AT_EPOCH":53,"BSTAR":0.00045822046,"MEAN_MOTION_DOT":0.00014018,"MEAN_MOTION_DDOT":0}]
